{"type": "FeatureCollection", "features": [ {"type": "Feature", "properties": {"norad_id": 39019, "name": "PLEIADES 1B", "group": "resource", "lat": 5.064129993127632, "lon": 64.28374713116413, "alt_km": 699.9638327737457, "timestamp": "2025-12-18T10:51:25.446097+00:00", "meta": {"OBJECT_NAME": "PLEIADES 1B", "OBJECT_ID": "2012-068A", "EPOCH": "2025-12-17T23:18:31.010400", "MEAN_MOTION": 14.58557153, "ECCENTRICITY": 0.0001171, "INCLINATION": 98.1793, "RA_OF_ASC_NODE": 64.5405, "ARG_OF_PERICENTER": 84.817, "MEAN_ANOMALY": 275.3163, "EPHEMERIS_TYPE": 0, "CLASSIFICATION_TYPE": "U", "NORAD_CAT_ID": 39019, "ELEMENT_SET_NO": 999, "REV_AT_EPOCH": 69443, "BSTAR": 5.5300153e-05, "MEAN_MOTION_DOT": 2.12e-06, "MEAN_MOTION_DDOT": 0}, "tle": {"line1": "1 39019U 12068A   25351.97119225  .00000212  00000+0  55300-4 0  9992", "line2": "2 39019  98.1793  64.5405 0001171  84.8170 275.3163 14.58557153694430"}}, "geometry": {"type": "Point", "coordinates": [64.28374713116413, 5.064129993127632]}}, {"type": "Feature", "properties": {"norad_id": 39030, "name": "GOKTURK 2", "group": "resource", "lat": -24.04093753531314, "lon": 10.36928711321525, "alt_km": 649.8658844386609, "timestamp": "2025-12-18T10:51:25.446108+00:00", "meta": {"OBJECT_NAME": "GOKTURK 2", "OBJECT_ID": "2012-073A", "EPOCH": "2025-12-17T22:32:24.516096", "MEAN_MOTION": 14.75299353, "ECCENTRICITY": 0.00011529, "INCLINATION": 97.6892, "RA_OF_ASC_NODE": 193.3367, "ARG_OF_PERICENTER": 107.4961, "MEAN_ANOMALY": 252.6375, "EPHEMERIS_TYPE": 0, "CLASSIFICATION_TYPE": "U", "NORAD_CAT_ID": 39030, "ELEMENT_SET_NO": 999, "REV_AT_EPOCH": 69778, "BSTAR": 0.00011511751, "MEAN_MOTION_DOT": 7.33e-06, "MEAN_MOTION_DDOT": 0}, "tle": {"line1": "1 39030U 12073A   25351.93917264  .00000733  00000+0  11512-3 0  9990", "line2": "2 39030  97.6892 193.3367 0001152 107.4961 252.6375 14.75299353697782"}}, "geometry": {"type": "Point", "coordinates": [10.36928711321525, -24.04093753531314]}}, {"type": "Feature", "properties": {"norad_id": 39084, "name": "LANDSAT 8", "group": "resource", "lat": 33.750861380723734, "lon": -114.02477226496379, "alt_km": 699.9392209247917, "timestamp": "2025-12-18T10:51:25.446119+00:00", "meta": {"OBJECT_NAME": "LANDSAT 8", "OBJECT_ID": "2013-008A", "EPOCH": "2025-12-17T19:21:28.446336", "MEAN_MOTION": 14.57118995, "ECCENTRICITY": 0.0001059, "INCLINATION": 98.2068, "RA_OF_ASC_NODE": 59.8052, "ARG_OF_PERICENTER": 91.5621, "MEAN_ANOMALY": 268.5699, "EPHEMERIS_TYPE": 0, "CLASSIFICATION_TYPE": "U", "NORAD_CAT_ID": 39084, "ELEMENT_SET_NO": 999, "REV_AT_EPOCH": 67148, "BSTAR": 8.6273133e-05, "MEAN_MOTION_DOT": 3.44e-06, "MEAN_MOTION_DDOT": 0}, "tle": {"line1": "1 39084U 13008A   25351.80657924  .00000344  00000+0  86273-4 0  9993", "line2": "2 39084  98.2068  59.8052 0001059  91.5621 268.5699 14.57118995671488"}}, "geometry": {"type": "Point", "coordinates": [-114.02477226496379, 33.750861380723734]}}, {"type": "Feature", "properties": {"norad_id": 39086, "name": "SARAL", "group": "resource", "lat": -8.726567910264446, "lon": 177.6311684353834, "alt_km": 787.1032291226447, "timestamp": "2025-12-18T10:51:25.446129+00:00", "meta": {"OBJECT_NAME": "SARAL", "OBJECT_ID": "2013-009A", "EPOCH": "2025-12-17T19:48:49.349952", "MEAN_MOTION": 14.32758773, "ECCENTRICITY": 0.00029411, "INCLINATION": 98.5502, "RA_OF_ASC_NODE": 175.6896, "ARG_OF_PERICENTER": 99.0919, "MEAN_ANOMALY": 261.0598, "EPHEMERIS_TYPE": 0, "CLASSIFICATION_TYPE": "U", "NORAD_CAT_ID": 39086, "ELEMENT_SET_NO": 999, "REV_AT_EPOCH": 66963, "BSTAR": 5.2490332e-05, "MEAN_MOTION_DOT": 9.9e-07, "MEAN_MOTION_DDOT": 0}, "tle": {"line1": "1 39086U 13009A   25351.82557118  .00000099  00000+0  52490-4 0  9993", "line2": "2 39086  98.5502 175.6896 0002941  99.0919 261.0598 14.32758773669630"}}, "geometry": {"type": "Point", "coordinates": [177.6311684353834, -8.726567910264446]}}, {"type": "Feature", "properties": {"norad_id": 39150, "name": "GAOFEN-1", "group": "resource", "lat": -51.54613706167377, "lon": 73.12373266806728, "alt_km": 660.1539201971191, "timestamp": "2025-12-18T10:51:25.446139+00:00", "meta": {"OBJECT_NAME": "GAOFEN-1", "OBJECT_ID": "2013-018A", "EPOCH": "2025-12-17T23:42:33.150816", "MEAN_MOTION": 14.76544135, "ECCENTRICITY": 0.00184607, "INCLINATION": 97.9327, "RA_OF_ASC_NODE": 62.5547, "ARG_OF_PERICENTER": 126.8717, "MEAN_ANOMALY": 233.4188, "EPHEMERIS_TYPE": 0, "CLASSIFICATION_TYPE": "U", "NORAD_CAT_ID": 39150, "ELEMENT_SET_NO": 999, "REV_AT_EPOCH": 68150, "BSTAR": 0.00012241975, "MEAN_MOTION_DOT": 8.05e-06, "MEAN_MOTION_DDOT": 0}, "tle": {"line1": "1 39150U 13018A   25351.98788369  .00000805  00000+0  12242-3 0  9991", "line2": "2 39150  97.9327  62.5547 0018460 126.8717 233.4188 14.76544135681506"}}, "geometry": {"type": "Point", "coordinates": [73.12373266806728, -51.54613706167377]}}, {"type": "Feature", "properties": {"norad_id": 39160, "name": "VNREDSAT 1", "group": "resource", "lat": 47.446254595452444, "lon": -123.7314816006382, "alt_km": 672.6040215022695, "timestamp": "2025-12-18T10:51:25.446154+00:00", "meta": {"OBJECT_NAME": "VNREDSAT 1", "OBJECT_ID": "2013-021B", "EPOCH": "2025-12-17T22:46:56.059680", "MEAN_MOTION": 14.64930421, "ECCENTRICITY": 0.00012241, "INCLINATION": 97.9374, "RA_OF_ASC_NODE": 47.0418, "ARG_OF_PERICENTER": 78.0969, "MEAN_ANOMALY": 282.0371, "EPHEMERIS_TYPE": 0, "CLASSIFICATION_TYPE": "U", "NORAD_CAT_ID": 39160, "ELEMENT_SET_NO": 999, "REV_AT_EPOCH": 67375, "BSTAR": 0.00010417658, "MEAN_MOTION_DOT": 5.12e-06, "MEAN_MOTION_DDOT": 0}, "tle": {"line1": "1 39160U 13021B   25351.94925995  .00000512  00000+0  10418-3 0  9998", "line2": "2 39160  97.9374  47.0418 0001224  78.0969 282.0371 14.64930421673757"}}, "geometry": {"type": "Point", "coordinates": [-123.7314816006382, 47.446254595452444]}}, {"type": "Feature", "properties": {"norad_id": 39227, "name": "ARIRANG-5 (KOMPSAT-5)", "group": "resource", "lat": -56.191583067354365, "lon": -171.80228424700252, "alt_km": 560.3099602396196, "timestamp": "2025-12-18T10:51:25.446165+00:00", "meta": {"OBJECT_NAME": "ARIRANG-5 (KOMPSAT-5)", "OBJECT_ID": "2013-042A", "EPOCH": "2025-12-17T23:56:11.447808", "MEAN_MOTION": 15.04529853, "ECCENTRICITY": 0.000345, "INCLINATION": 97.6146, "RA_OF_ASC_NODE": 176.2256, "ARG_OF_PERICENTER": 41.3003, "MEAN_ANOMALY": 318.8484, "EPHEMERIS_TYPE": 0, "CLASSIFICATION_TYPE": "U", "NORAD_CAT_ID": 39227, "ELEMENT_SET_NO": 999, "REV_AT_EPOCH": 67661, "BSTAR": 0.00018705175, "MEAN_MOTION_DOT": 2.56e-05, "MEAN_MOTION_DDOT": 0}, "tle": {"line1": "1 39227U 13042A   25351.99735472  .00002560  00000+0  18705-3 0  9991", "line2": "2 39227  97.6146 176.2256 0003450  41.3003 318.8484 15.04529853676614"}}, "geometry": {"type": "Point", "coordinates": [-171.80228424700252, -56.191583067354365]}}, {"type": "Feature", "properties": {"norad_id": 39418, "name": "SKYSAT-A", "group": "resource", "lat": 76.03395925331505, "lon": -105.95591644240797, "alt_km": 529.9475235444679, "timestamp": "2025-12-18T10:51:25.446176+00:00", "meta": {"OBJECT_NAME": "SKYSAT-A", "OBJECT_ID": "2013-066C", "EPOCH": "2025-12-17T16:55:51.552192", "MEAN_MOTION": 15.11638877, "ECCENTRICITY": 0.00210458, "INCLINATION": 97.4105, "RA_OF_ASC_NODE": 41.7633, "ARG_OF_PERICENTER": 218.6292, "MEAN_ANOMALY": 141.3434, "EPHEMERIS_TYPE": 0, "CLASSIFICATION_TYPE": "U", "NORAD_CAT_ID": 39418, "ELEMENT_SET_NO": 999, "REV_AT_EPOCH": 66105, "BSTAR": 0.00017971917, "MEAN_MOTION_DOT": 3.006e-05, "MEAN_MOTION_DDOT": 0}, "tle": {"line1": "1 39418U 13066C   25351.70545778  .00003006  00000+0  17972-3 0  9997", "line2": "2 39418  97.4105  41.7633 0021045 218.6292 141.3434 15.11638877661054"}}, "geometry": {"type": "Point", "coordinates": [-105.95591644240797, 76.03395925331505]}}, {"type": "Feature", "properties": {"norad_id": 39419, "name": "DUBAISAT-2", "group": "resource", "lat": 2.267604415242859, "lon": 162.98054562283866, "alt_km": 547.5886852840058, "timestamp": "2025-12-18T10:51:25.446187+00:00", "meta": {"OBJECT_NAME": "DUBAISAT-2", "OBJECT_ID": "2013-066D", "EPOCH": "2025-12-17T22:55:36.367392", "MEAN_MOTION": 15.0840807, "ECCENTRICITY": 0.00100285, "INCLINATION": 97.4443, "RA_OF_ASC_NODE": 342.2021, "ARG_OF_PERICENTER": 302.1879, "MEAN_ANOMALY": 57.8376, "EPHEMERIS_TYPE": 0, "CLASSIFICATION_TYPE": "U", "NORAD_CAT_ID": 39419, "ELEMENT_SET_NO": 999, "REV_AT_EPOCH": 65905, "BSTAR": 0.00024682989, "MEAN_MOTION_DOT": 3.782e-05, "MEAN_MOTION_DDOT": 0}, "tle": {"line1": "1 39419U 13066D   25351.95528203  .00003782  00000+0  24683-3 0  9997", "line2": "2 39419  97.4443 342.2021 0010028 302.1879  57.8376 15.08408070659058"}}, "geometry": {"type": "Point", "coordinates": [162.98054562283866, 2.267604415242859]}}, {"type": "Feature", "properties": {"norad_id": 39574, "name": "GPM-CORE", "group": "resource", "lat": -5.892544238930953, "lon": -169.2116242977705, "alt_km": 437.3743139486678, "timestamp": "2025-12-18T10:51:25.446197+00:00", "meta": {"OBJECT_NAME": "GPM-CORE", "OBJECT_ID": "2014-009C", "EPOCH": "2025-12-17T20:53:57.900192", "MEAN_MOTION": 15.44542537, "ECCENTRICITY": 0.00095257, "INCLINATION": 64.9724, "RA_OF_ASC_NODE": 195.499, "ARG_OF_PERICENTER": 247.0583, "MEAN_ANOMALY": 112.9552, "EPHEMERIS_TYPE": 0, "CLASSIFICATION_TYPE": "U", "NORAD_CAT_ID": 39574, "ELEMENT_SET_NO": 999, "REV_AT_EPOCH": 66980, "BSTAR": 0.00014428928, "MEAN_MOTION_DOT": 6.493e-05, "MEAN_MOTION_DDOT": 0}, "tle": {"line1": "1 39574U 14009C   25351.87080903  .00006493  00000+0  14429-3 0  9997", "line2": "2 39574  64.9724 195.4990 0009525 247.0583 112.9552 15.44542537669803"}}, "geometry": {"type": "Point", "coordinates": [-169.2116242977705, -5.892544238930953]}}]}